[Satellite]
VERSION=1.1
NAME=COSMOS 1544
NICKNAME=COSMOS 1544
TLE1=1 14819U 84027A   17186.05688886  .00000875  00000-0  32758-4 0  9995
TLE2=2 14819  82.4834   9.8096 0013877 344.0717  16.0083 15.25832716818306
